[{"tle1":"1 00005U 58002B   23102.57063344  .00000078  00000+0  84911-4 0  9991","tle2":"2 00005  34.2581 297.5582 1847009 304.1004  39.7575 10.85078443317039","payload":"Vanguard Test Satellite H","Mass":"2","vmag":9.5,"status":"In Orbit","launchDate":"1958 Mar 17","owner":"NRL","country":"US","manufacturer":"NRL","bus":"NRL 6\"","launchMass":"2","dryMass":"2","length":"0.1","diameter":"0.1","span":"0.1","shape":"Sphere","name":"VANGUARD 1","launchSite":"AFETR","launchVehicle":"U","type":1,"rcs":"0.1220"},{"tle1":"1 00011U 59001A   23102.52381981  .00002247  00000+0  11744-2 0  9995","tle2":"2 00011  32.8738 149.9410 1462946 303.7300  43.2162 11.86962895397182","payload":"Cloud cover satellite","Mass":"10","vmag":7.5,"name":"VANGUARD 2","country":"US","launchSite":"AFETR","launchVehicle":"U","launchDate":"1959 Feb 17","type":1,"rcs":"0.3931","status":"In Orbit","owner":"BSC","manufacturer":"NRL","bus":"NRL 20\"","launchMass":"10","dryMass":"10","length":"0.5","diameter":"0.5","span":"0.5","shape":"Sphere"},{"tle1":"1 00012U 59001B   23102.10452989  .00002633  00000+0  15673-2 0  9991","tle2":"2 00012  32.9014 350.5476 1660406  86.2571 292.5454 11.45391638397850","payload":"GRC 33-KS-2800 175-15-21","Mass":"195","vmag":6.5,"status":"In Orbit","launchDate":"1959 Feb 17","owner":"BSC","country":"US","manufacturer":"GCR","bus":"33-KS-2800","launchMass":"195","dryMass":"22","length":"1.5","diameter":"0.7","span":"1.5","shape":"Cyl","name":"VANGUARD R/B","launchSite":"AFETR","launchVehicle":"U","type":2,"rcs":"0.5266"},{"tle1":"1 00016U 58002A   23102.24264491  .00000023  00000+0  39726-5 0  9998","tle2":"2 00016  34.2783  63.7306 2025681 255.9344  80.9042 10.48822741566857","payload":"GRC 33-KS-2800 144-79-22","Mass":"195","vmag":7,"status":"In Orbit","launchDate":"1958 Mar 17","owner":"NRL","country":"US","manufacturer":"GCR","bus":"33-KS-2800","launchMass":"195","dryMass":"22","length":"1.5","diameter":"0.7","span":"1.5","shape":"Cyl","name":"VANGUARD R/B","launchSite":"AFETR","launchVehicle":"U","type":2,"rcs":"0.2282"},{"tle1":"1 00020U 59007A   23102.46762352  .00003540  00000+0  14326-2 0  9995","tle2":"2 00020  33.3469 114.0738 1659263 328.5202  22.5716 11.57283969349718","payload":"Magne-Ray satellite","Mass":"23","vmag":7,"status":"Attached in Orbit","launchDate":"1959 Sep 18","owner":"GSFC","country":"US","manufacturer":"NRL","bus":"NRL 20\"","launchMass":"23","dryMass":"23","length":"1.2","diameter":"0.5","span":"1.2","shape":"Sphere + Ant","name":"VANGUARD 3","launchSite":"AFETR","launchVehicle":"U","type":1,"rcs":"0.6412"},{"tle1":"1 00022U 59009A   23102.83836663  .00005260  00000+0  37193-3 0  9996","tle2":"2 00022  50.2818 302.6617 0128350 239.4768 119.3460 14.99973922379472","payload":"NASA S-1A","Mass":"41","vmag":7.5,"name":"EXPLORER 7","country":"US","launchSite":"AFETR","launchVehicle":"U","launchDate":"1959 Oct 13","type":1,"rcs":"0.5003","status":"In Orbit","owner":"GSFC","manufacturer":"ABMA","bus":"S-1","launchMass":"41","dryMass":"41","length":"0.8","diameter":"0.8","span":"7.0","shape":"DCone + 2 Ant"}]